#aV2008 12 31  0  0   .00000000      96 DD+AD WGS84 FIT  NGA
## 1512 259200.00000000   900.00000000 54831  .0000000000000
+   31     2  3  4  5  6  7  8  9 10 11 12 13 14 15 16 17 18
+         19 20 21 22 23 24 25 26 27 28 29 30 31 32  0  0  0
+          0  0  0  0  0  0  0  0  0  0  0  0  0  0  0  0  0
+          0  0  0  0  0  0  0  0  0  0  0  0  0  0  0  0  0
+          0  0  0  0  0  0  0  0  0  0  0  0  0  0  0  0  0
++         0  0  0  0  0  0  0  0  0  0  0  0  0  0  0  0  0
++         0  0  0  0  0  0  0  0  0  0  0  0  0  0  0  0  0
++         0  0  0  0  0  0  0  0  0  0  0  0  0  0  0  0  0
++         0  0  0  0  0  0  0  0  0  0  0  0  0  0  0  0  0
++         0  0  0  0  0  0  0  0  0  0  0  0  0  0  0  0  0
%c cc cc ccc ccc cccc cccc cccc cccc ccccc ccccc ccccc ccccc
%c cc cc ccc ccc cccc cccc cccc cccc ccccc ccccc ccccc ccccc
%f  0.0000000  0.000000000  0.00000000000  0.000000000000000
%f  0.0000000  0.000000000  0.00000000000  0.000000000000000
%i    0    0    0    0      0      0      0      0         0
%i    0    0    0    0      0      0      0      0         0
/*      NGA, ST. LOUIS,MO.                                  
/*   EPHEMERIS COMPUTED FROM  3 DAYS OF DATA                
/* CCCCCCCCCCCCCCCCCCCCCCCCCCCCCCCCCCCCCCCCCCCCCCCCCCCCCCCCC
/* CCCCCCCCCCCCCCCCCCCCCCCCCCCCCCCCCCCCCCCCCCCCCCCCCCCCCCCCC
*  2008 12 31  6 15   .00000000                                                 
P  2   5752.041547  18636.875167  18066.689190    164.059153                    
V  2 -20771.427701 -10293.481348  16727.739890      -.020114                    
P  3    360.708039 -18217.981534 -19511.673348    332.221046                    
V  3  20907.486656 -12658.111631  12751.207729       .052600                    
P  4  -9747.156984  12263.246243  21339.013121   -283.142689                    
V  4 -23356.128833 -14421.324310  -1997.157085      -.130960                    
P  5  14507.982189  11420.611654  18840.994614   -464.771137                    
V  5    264.848184  24607.660212 -14766.715323      -.678802                    
P  6   6222.714764 -18898.377664 -17400.687382    106.960380                    
V  6  20384.192549  -9896.896769  17869.490267      -.110645                    
P  7 -23415.109097  -4613.600640 -11790.021412     23.488120                    
V  7 -11627.322855  -9562.085168  26765.680403      -.000628                    
P  8 -16330.828700   5226.500826 -20481.863346   -184.385080                    
V  8 -20875.357692 -14939.514912  12385.956519      -.015967                    
P  9  21282.414384  15476.533618  -4651.493339     32.500614                    
V  9  -5493.087100   -568.676432 -31265.324877       .019609                    
P 10   2010.649270  25935.392423  -4516.642544     -8.839056                    
V 10  -3274.386675   5468.316095  31280.865814      -.003962                    
P 11 -23724.011442 -11765.272741  -3951.007217     11.832863                    
V 11   6063.842843  -2745.714949 -29335.838773      -.010068                    
P 12  12026.792757  15610.620542  17929.626776   -329.591654                    
V 12  -1978.032038  22526.146985 -18262.848759       .031065                    
P 13 -23755.870966   3383.387906  11263.118543    283.164579                    
V 13  12328.977604  -7657.923997  28026.923188       .014826                    
P 14  19398.684030 -16046.309967   8406.344232   -174.724793                    
V 14  10203.524179  -3110.609194 -30021.049819       .050942                    
P 15   9355.792214  12206.608389 -21625.569079   -234.986522                    
V 15 -23833.439068  13810.147013  -2469.157139      -.057722                    
P 16   2525.572664 -26239.034229   2129.854216     85.319317                    
V 16   2667.558573   2757.232845  31896.337392      -.025892                    
P 17 -20850.554756  15387.094072   5404.956647     43.112275                    
V 17  -7415.355135    630.354490 -30841.753394       .008277                    
P 18  15274.316693  -5712.355466 -20692.327407    -97.760266                    
V 18   -367.517807  26901.477711  -7979.695193       .037390                    
P 19 -10449.189155 -11754.971994 -21366.105295     34.377818                    
V 19  24580.399525 -11794.976843  -5296.556880      -.004020                    
P 20 -13733.675635 -12399.724618  18952.292715     94.940168                    
V 20   1524.963308 -24358.463073 -14691.656440      -.010089                    
P 21  22104.361017    969.768866 -14901.792599     36.020556                    
V 21  14957.483087  12159.638517  22022.417623      -.016807                    
P 22  11928.146805 -18279.047934 -14935.799718    207.337100                    
V 22   1396.245379  19430.600125 -22482.220849      -.003586                    
P 23 -19296.037594  -3490.336443  17991.774707    384.005860                    
V 23  19408.610270 -12061.342434  18164.242285       .008933                    
P 24  22914.756463  12690.837377  -3242.981093    153.725734                    
V 24   1716.162834   5187.041941  31359.380916       .031981                    
P 25 -24605.315142  -8524.168680  -4346.520073    140.001242                    
V 25  -4206.905651  -5079.316330  31384.385987       .274308                    
P 26   2531.495277  14916.855363 -22273.390571     31.670743                    
V 26 -24533.488754  11413.239903   5484.166988       .036855                    
P 27 -15786.434766   6813.080903 -19622.276599     12.346308                    
V 27 -22771.528131 -13238.915674  13177.615185       .030197                    
P 28 -12167.963787  16363.720193 -16424.397460    -23.788257                    
V 28   -994.822718 -21830.415750 -20833.844350       .000483                    
P 29  23447.456740  -2517.724777  12289.219274    -21.469263                    
V 29 -12615.312901   9243.311332  26213.730485       .024775                    
P 30  15258.558508   1512.320148  21332.100635    116.862235                    
V 30    413.536837  27969.820825  -2159.439283       .023812                    
P 31   6430.963065 -13715.482920  22024.994927    -45.785404                    
V 31  23614.700319  13955.274201   1927.712154      -.015930                    
P 32  -8815.590726 -19960.882955  15715.375727    306.663605                    
V 32   3573.643695 -18832.169932 -22294.784981      -.023256                    
EOF
